{"type":"FeatureCollection","features":[{"type":"Feature","id":"way/446646206","properties":{"addr:city":"دبي","addr:city:ar":"دبي","addr:city:en":"Dubai","addr:city:ur":"دبئی","addr:housenumber":"1","addr:street":"شارع الشيخ محمد بن راشد","alt_name:hu":"Kalifa-torony","alt_old_name:hu":"Dubaj-torony","building":"yes","building:levels":"189","building:material":"glass","check_date":"2023-05-22","email":"Info@atthetop.ae","height":"828","image":"https://photos.app.goo.gl/1j9z8iSqA6hyPJYXA","layer":"1","name":"برج خليفة","name:af":"Burj Khalifa","name:an":"Burch Khalifa","name:ar":"برج خليفة","name:ast":"Burj Khalifa","name:ba":"Бурдж-Хәлифә","name:be":"Бурдж-Халіфа","name:bg":"Бурдж Халифа","name:br":"Burj Khalifa","name:bs":"Burj Khalifa","name:ca":"Burj Khalifa","name:ckb":"بورجی خەلیفە","name:cs":"Burdž Chalífa","name:cu":"Боурджь Халифа","name:cy":"Burj Khalifa","name:da":"Burj Khalifa","name:de":"Burj Khalifa","name:el":"Μπουρτζ Χαλίφα","name:en":"Burj Khalifa","name:es":"Burj Khalifa","name:et":"Burj Khalīfah","name:eu":"Burj Khalifa","name:fi":"Burj Khalifa","name:fo":"Burj Khalifa","name:fr":"Burj Khalifa","name:fy":"Burj Khalifa","name:gl":"Burj Khalifa","name:gn":"Burj Khalifa","name:ha":"Burj Khalifa","name:he":"בורג' ח'ליפה","name:hi":"बुर्ज खलीफा","name:hu":"Burdzs Kalifa","name:id":"Burj Khalifa","name:is":"Burj Khalifa","name:it":"Burj Khalifa","name:ja":"ブルジュ・ハリファ","name:jv":"Burj Khalifa","name:kk":"Бурж Халифа","name:ko":"부르즈 할리파","name:ku":"Birca Xelîfe","name:kw":"Burj Khalifa","name:la":"Turris Khalifa","name:lt":"Burdž Chalifa","name:lv":"Burj Khalīfah","name:mk":"Бурџ Халифа","name:ml":"ബുർജ് ഖലീഫ","name:mn":"Бурж Халифа","name:ms":"Burj Khalifa","name:nl":"Burj Khalifa","name:nn":"Burj Khalifa","name:no":"Burj Khalifa","name:oc":"Burj Khalifa","name:pl":"Burdż Chalifa","name:pt":"Burj Khalifa","name:ro":"Burj Khalifa","name:ru":"Бурдж-Халифа","name:sco":"Burj Khalifa","name:sh":"Burj Khalifa","name:sk":"Burdž Khalífa","name:sl":"Burj Kalifa","name:so":"Burj Khalifa","name:sq":"Burxh Khalifa","name:sr":"Burdž Kalifa","name:sv":"Burj Khalifa","name:sw":"Burj Khalifa","name:th":"บุรจญ์เคาะลีฟะฮ์","name:tl":"Burj Khalifa","name:tr":"Burç Halife","name:tt":"Burc Xälifä","name:uk":"Бурдж Халіфа","name:uz":"Burj Xalifa","name:vi":"Burj Khalifa","name:war":"Burj Khalifa","name:yue":"哈利法塔","name:zh":"迪拜塔","note:height":"Building attributes (e.g., address, name, overall height, operator, etc.) must be tagged on the building outline. https://wiki.openstreetmap.org/wiki/Simple_3D_buildings#Building_outlines","old_name":"Burj Dubai","old_name:hu":"Burdzs Dubaj","operator":"Emaar Properties","roof:material":"concrete","roof:shape":"flat","start_date":"2010-01-04","tourism":"attraction","url":"https://youtu.be/QmQykkr4hC0","url:0":"https://youtu.be/aCxbknkUCg4","website":"https://www.burjkhalifa.ae/","wheelchair":"limited","wikidata":"Q12495","wikipedia":"en:Burj Khalifa","id":"way/446646206","note":"Burj Khalifa","maki_temaki":"temaki/obelisk"},"geometry":{"type":"Point","coordinates":[55.2742132,25.1970352]}},{"type":"Feature","id":"way/4420397","properties":{"access":"permissive","addr:city":"Giza","addr:country":"EG","alt_name":"الهرم الأكبر","alt_name:cs":"Velká pyramida","alt_name:de":"Große Pyramide","alt_name:en":"Pyramid of Cheops","alt_name:eo":"granda piramido de Gizo","alt_name:es":"Gran Pirámide de Guiza","alt_name:pl":"Wielka Piramida w Gizie","alt_name:tt":"Хеопс пирамидасы","alt_name:zh":"大金字塔","building":"yes","charge":"5.7$","fee":"yes","height":"138.8","historic":"tomb","historic:civilization":"ancient_egyptian","image":"https://photos.app.goo.gl/QsB8gaiFxXEsKHU4A","int_name":"Pyramid of Khufu","mapillary":"479377339829019","material":"limestone;tora-limestone;granite","name":"هرم خوفو","name:ar":"هرم خوفو","name:cs":"Chufuova pyramida","name:da":"Den store pyramide i Giza","name:de":"Cheops-Pyramide","name:el":"Πυραμίδα του Χέοπα","name:en":"Great Pyramid of Giza","name:eo":"piramido de Keopso","name:es":"Pirámide de Keops","name:et":"Cheopsi püramiid","name:fi":"Kheopsin pyramidi","name:fr":"Pyramide de Khéops","name:he":"הפירמידה הגדולה של גיזה","name:hi":"गीज़ा के महान पिरामिड","name:hu":"Gízai Nagy Piramis, Khufu - Keops piramis","name:it":"Piramide di Cheope","name:ja":"ギザの大ピラミッド","name:ko":"기자의 대피라미드","name:ku":"Pîramîda Keops","name:ml":"ഗിസയിലെ ബൃഹത് പിരമിഡ്","name:nl":"Pyramide van Cheops","name:pl":"Piramida Cheopsa","name:pt":"Pirâmide de Quéops","name:ro":"Piramida lui Keops","name:ru":"пирамида Хеопса","name:sk":"Chufuova pyramída","name:sv":"Cheopspyramiden","name:th":"พีระมิดคูฟู","name:tt":"Гизаның Бөек пирамидасы","name:uk":"піраміда Хеопса","name:vi":"Kim tự tháp Kheops","name:yue":"胡夫金字塔","name:zh":"胡夫金字塔","old_name":"Pyramid of Cheops","old_name:cs":"Cheopsova pyramida","old_name:de":"Horizont des Cheops","old_name:egy":"3ḫt ḫwfw","roof:colour":"#F69B3C","roof:height":"138","roof:material":"brick","roof:shape":"pyramidal","tomb":"pyramid","tourism":"attraction","wikidata":"Q37200","wikipedia":"en:Great Pyramid of Giza","wikipedia:de":"Cheops-Pyramide","wikipedia:en":"Great Pyramid of Giza","id":"way/4420397","note":"Great Pyramid of Giza","maki_temaki":"maki/triangle"},"geometry":{"type":"Point","coordinates":[31.1342122,29.9791626]}}]}